[{"OBJECT_NAME":"IRIDIUM 173","OBJECT_ID":"2019-002D","EPOCH":"2026-03-09T23:25:14.922624","MEAN_MOTION":14.34217176,"ECCENTRICITY":0.00020878,"INCLINATION":86.3979,"RA_OF_ASC_NODE":35.0129,"ARG_OF_PERICENTER":83.8645,"MEAN_ANOMALY":276.2788,"EPHEMERIS_TYPE":0,"CLASSIFICATION_TYPE":"U","NORAD_CAT_ID":43925,"ELEMENT_SET_NO":999,"REV_AT_EPOCH":37473,"BSTAR":2.1469625e-5,"MEAN_MOTION_DOT":8.0e-7,"MEAN_MOTION_DDOT":0},{"OBJECT_NAME":"DMSP 5D-2 F13 DEB","OBJECT_ID":"1995-015AZ","EPOCH":"2026-03-09T01:20:33.473472","MEAN_MOTION":14.31077076,"ECCENTRICITY":0.00109868,"INCLINATION":98.6468,"RA_OF_ASC_NODE":95.3254,"ARG_OF_PERICENTER":254.7149,"MEAN_ANOMALY":105.282,"EPHEMERIS_TYPE":0,"CLASSIFICATION_TYPE":"U","NORAD_CAT_ID":40447,"ELEMENT_SET_NO":999,"REV_AT_EPOCH":57194,"BSTAR":0.00096942023,"MEAN_MOTION_DOT":2.512e-5,"MEAN_MOTION_DDOT":0}]
